[{"OBJECT_NAME":"STARLINK-30579","OBJECT_ID":"2023-158L","EPOCH":"2026-01-10T22:12:31.669056","MEAN_MOTION":15.02535625,"ECCENTRICITY":7.566e-5,"INCLINATION":43.0025,"RA_OF_ASC_NODE":318.7623,"ARG_OF_PERICENTER":251.2424,"MEAN_ANOMALY":108.8337,"EPHEMERIS_TYPE":0,"CLASSIFICATION_TYPE":"U","NORAD_CAT_ID":58061,"ELEMENT_SET_NO":999,"REV_AT_EPOCH":12513,"BSTAR":7.0579298e-5,"MEAN_MOTION_DOT":7.5e-6,"MEAN_MOTION_DDOT":0},{"OBJECT_NAME":"STARLINK-30588","OBJECT_ID":"2023-158M","EPOCH":"2026-01-10T23:42:35.436096","MEAN_MOTION":15.0252707,"ECCENTRICITY":0.00014097,"INCLINATION":43.0061,"RA_OF_ASC_NODE":343.6838,"ARG_OF_PERICENTER":276.5074,"MEAN_ANOMALY":83.5608,"EPHEMERIS_TYPE":0,"CLASSIFICATION_TYPE":"U","NORAD_CAT_ID":58062,"ELEMENT_SET_NO":999,"REV_AT_EPOCH":12485,"BSTAR":-4.5367497e-5,"MEAN_MOTION_DOT":-8.16e-6,"MEAN_MOTION_DDOT":0},{"OBJECT_NAME":"STARLINK-30585","OBJECT_ID":"2023-158N","EPOCH":"2026-01-09T05:59:15.908352","MEAN_MOTION":15.02532426,"ECCENTRICITY":0.00011415,"INCLINATION":43.0059,"RA_OF_ASC_NODE":353.0002,"ARG_OF_PERICENTER":273.3764,"MEAN_ANOMALY":86.6948,"EPHEMERIS_TYPE":0,"CLASSIFICATION_TYPE":"U","NORAD_CAT_ID":58063,"ELEMENT_SET_NO":999,"REV_AT_EPOCH":12459,"BSTAR":-3.858341e-6,"MEAN_MOTION_DOT":-2.56e-6,"MEAN_MOTION_DDOT":0},{"OBJECT_NAME":"STARLINK-30587","OBJECT_ID":"2023-158P","EPOCH":"2026-01-10T23:47:22.698816","MEAN_MOTION":15.02535281,"ECCENTRICITY":9.65e-5,"INCLINATION":43.0047,"RA_OF_ASC_NODE":343.7081,"ARG_OF_PERICENTER":270.1661,"MEAN_ANOMALY":89.9071,"EPHEMERIS_TYPE":0,"CLASSIFICATION_TYPE":"U","NORAD_CAT_ID":58064,"ELEMENT_SET_NO":999,"REV_AT_EPOCH":12485,"BSTAR":-2.4451108e-5,"MEAN_MOTION_DOT":-5.34e-6,"MEAN_MOTION_DDOT":0},{"OBJECT_NAME":"STARLINK-30576","OBJECT_ID":"2023-158Q","EPOCH":"2026-01-10T22:50:00.669696","MEAN_MOTION":15.02529364,"ECCENTRICITY":0.00016546,"INCLINATION":43.0063,"RA_OF_ASC_NODE":344.2694,"ARG_OF_PERICENTER":264.1728,"MEAN_ANOMALY":95.8926,"EPHEMERIS_TYPE":0,"CLASSIFICATION_TYPE":"U","NORAD_CAT_ID":58065,"ELEMENT_SET_NO":999,"REV_AT_EPOCH":12484,"BSTAR":7.115491e-6,"MEAN_MOTION_DOT":-1.08e-6,"MEAN_MOTION_DDOT":0},{"OBJECT_NAME":"STARLINK-30571","OBJECT_ID":"2023-158R","EPOCH":"2026-01-10T07:21:19.490112","MEAN_MOTION":15.0255014,"ECCENTRICITY":6.367e-5,"INCLINATION":43.0047,"RA_OF_ASC_NODE":347.1699,"ARG_OF_PERICENTER":259.4856,"MEAN_ANOMALY":100.5914,"EPHEMERIS_TYPE":0,"CLASSIFICATION_TYPE":"U","NORAD_CAT_ID":58066,"ELEMENT_SET_NO":999,"REV_AT_EPOCH":12475,"BSTAR":0.00018029255,"MEAN_MOTION_DOT":2.234e-5,"MEAN_MOTION_DDOT":0},{"OBJECT_NAME":"STARLINK-30567","OBJECT_ID":"2023-158S","EPOCH":"2026-01-10T23:10:47.128800","MEAN_MOTION":15.02536088,"ECCENTRICITY":0.00010967,"INCLINATION":43.0046,"RA_OF_ASC_NODE":344.3619,"ARG_OF_PERICENTER":278.6354,"MEAN_ANOMALY":81.4364,"EPHEMERIS_TYPE":0,"CLASSIFICATION_TYPE":"U","NORAD_CAT_ID":58067,"ELEMENT_SET_NO":999,"REV_AT_EPOCH":12484,"BSTAR":-9.805108e-6,"MEAN_MOTION_DOT":-3.36e-6,"MEAN_MOTION_DDOT":0},{"OBJECT_NAME":"STARLINK-30569","OBJECT_ID":"2023-158T","EPOCH":"2026-01-10T09:16:14.375136","MEAN_MOTION":15.0253119,"ECCENTRICITY":0.00011115,"INCLINATION":43.0046,"RA_OF_ASC_NODE":346.9103,"ARG_OF_PERICENTER":270.1538,"MEAN_ANOMALY":89.9177,"EPHEMERIS_TYPE":0,"CLASSIFICATION_TYPE":"U","NORAD_CAT_ID":58068,"ELEMENT_SET_NO":999,"REV_AT_EPOCH":12476,"BSTAR":3.49178e-6,"MEAN_MOTION_DOT":-1.56e-6,"MEAN_MOTION_DDOT":0},{"OBJECT_NAME":"STARLINK-30480","OBJECT_ID":"2023-158U","EPOCH":"2026-01-10T23:16:19.007616","MEAN_MOTION":15.27555555,"ECCENTRICITY":0.00016081,"INCLINATION":42.9983,"RA_OF_ASC_NODE":210.797,"ARG_OF_PERICENTER":268.7844,"MEAN_ANOMALY":91.2823,"EPHEMERIS_TYPE":0,"CLASSIFICATION_TYPE":"U","NORAD_CAT_ID":58069,"ELEMENT_SET_NO":999,"REV_AT_EPOCH":12641,"BSTAR":0.00012589164,"MEAN_MOTION_DOT":3.201e-5,"MEAN_MOTION_DDOT":0},{"OBJECT_NAME":"STARLINK-30532","OBJECT_ID":"2023-158V","EPOCH":"2026-01-10T23:32:59.641440","MEAN_MOTION":15.02533191,"ECCENTRICITY":0.00010358,"INCLINATION":43.005,"RA_OF_ASC_NODE":343.6334,"ARG_OF_PERICENTER":273.8983,"MEAN_ANOMALY":86.1741,"EPHEMERIS_TYPE":0,"CLASSIFICATION_TYPE":"U","NORAD_CAT_ID":58070,"ELEMENT_SET_NO":999,"REV_AT_EPOCH":12485,"BSTAR":-5.0572721e-5,"MEAN_MOTION_DOT":-8.87e-6,"MEAN_MOTION_DDOT":0},{"OBJECT_NAME":"STARLINK-30513","OBJECT_ID":"2023-158W","EPOCH":"2026-01-11T00:00:02.000160","MEAN_MOTION":15.52427374,"ECCENTRICITY":0.0019986,"INCLINATION":42.9927,"RA_OF_ASC_NODE":69.1963,"ARG_OF_PERICENTER":57.1953,"MEAN_ANOMALY":101.8793,"EPHEMERIS_TYPE":0,"CLASSIFICATION_TYPE":"U","NORAD_CAT_ID":58071,"ELEMENT_SET_NO":999,"REV_AT_EPOCH":591,"BSTAR":0.0011832532,"MEAN_MOTION_DOT":0.00075141,"MEAN_MOTION_DDOT":0},{"OBJECT_NAME":"STARLINK-30506","OBJECT_ID":"2023-158X","EPOCH":"2026-01-10T01:02:40.593696","MEAN_MOTION":15.02590272,"ECCENTRICITY":0.0004986,"INCLINATION":43.0051,"RA_OF_ASC_NODE":348.6382,"ARG_OF_PERICENTER":326.0575,"MEAN_ANOMALY":33.9948,"EPHEMERIS_TYPE":0,"CLASSIFICATION_TYPE":"U","NORAD_CAT_ID":58072,"ELEMENT_SET_NO":999,"REV_AT_EPOCH":12471,"BSTAR":0.00047308574,"MEAN_MOTION_DOT":6.202e-5,"MEAN_MOTION_DDOT":0},{"OBJECT_NAME":"STARLINK-30604","OBJECT_ID":"2023-160A","EPOCH":"2026-01-10T12:24:07.612992","MEAN_MOTION":15.02539457,"ECCENTRICITY":0.00011549,"INCLINATION":43.0043,"RA_OF_ASC_NODE":36.6612,"ARG_OF_PERICENTER":274.1205,"MEAN_ANOMALY":85.9505,"EPHEMERIS_TYPE":0,"CLASSIFICATION_TYPE":"U","NORAD_CAT_ID":58075,"ELEMENT_SET_NO":999,"REV_AT_EPOCH":12416,"BSTAR":6.503872e-6,"MEAN_MOTION_DOT":-1.16e-6,"MEAN_MOTION_DDOT":0},{"OBJECT_NAME":"STARLINK-30500","OBJECT_ID":"2023-160B","EPOCH":"2026-01-10T09:26:53.139840","MEAN_MOTION":15.02535103,"ECCENTRICITY":0.00010727,"INCLINATION":43.0041,"RA_OF_ASC_NODE":36.5945,"ARG_OF_PERICENTER":278.699,"MEAN_ANOMALY":81.3731,"EPHEMERIS_TYPE":0,"CLASSIFICATION_TYPE":"U","NORAD_CAT_ID":58076,"ELEMENT_SET_NO":999,"REV_AT_EPOCH":12415,"BSTAR":-2.0783795e-5,"MEAN_MOTION_DOT":-4.84e-6,"MEAN_MOTION_DDOT":0},{"OBJECT_NAME":"STARLINK-30613","OBJECT_ID":"2023-160C","EPOCH":"2026-01-10T12:14:32.030880","MEAN_MOTION":15.02537838,"ECCENTRICITY":0.0001089,"INCLINATION":43.0043,"RA_OF_ASC_NODE":36.6118,"ARG_OF_PERICENTER":275.8629,"MEAN_ANOMALY":84.209,"EPHEMERIS_TYPE":0,"CLASSIFICATION_TYPE":"U","NORAD_CAT_ID":58077,"ELEMENT_SET_NO":999,"REV_AT_EPOCH":12417,"BSTAR":3.023929e-5,"MEAN_MOTION_DOT":2.05e-6,"MEAN_MOTION_DDOT":0},{"OBJECT_NAME":"STARLINK-30597","OBJECT_ID":"2023-160D","EPOCH":"2026-01-10T02:54:32.918112","MEAN_MOTION":15.02535809,"ECCENTRICITY":0.00012921,"INCLINATION":43.0039,"RA_OF_ASC_NODE":38.83,"ARG_OF_PERICENTER":268.6746,"MEAN_ANOMALY":91.3949,"EPHEMERIS_TYPE":0,"CLASSIFICATION_TYPE":"U","NORAD_CAT_ID":58078,"ELEMENT_SET_NO":999,"REV_AT_EPOCH":12410,"BSTAR":3.7288899e-5,"MEAN_MOTION_DOT":3.0e-6,"MEAN_MOTION_DDOT":0},{"OBJECT_NAME":"STARLINK-30598","OBJECT_ID":"2023-160E","EPOCH":"2026-01-10T08:58:17.032800","MEAN_MOTION":15.02536517,"ECCENTRICITY":0.00011854,"INCLINATION":43.0043,"RA_OF_ASC_NODE":37.3083,"ARG_OF_PERICENTER":273.7606,"MEAN_ANOMALY":86.3101,"EPHEMERIS_TYPE":0,"CLASSIFICATION_TYPE":"U","NORAD_CAT_ID":58079,"ELEMENT_SET_NO":999,"REV_AT_EPOCH":12414,"BSTAR":2.514269e-6,"MEAN_MOTION_DOT":-1.7e-6,"MEAN_MOTION_DDOT":0},{"OBJECT_NAME":"STARLINK-30603","OBJECT_ID":"2023-160F","EPOCH":"2026-01-10T10:29:13.238592","MEAN_MOTION":15.02533738,"ECCENTRICITY":0.00011269,"INCLINATION":43.0042,"RA_OF_ASC_NODE":36.921,"ARG_OF_PERICENTER":279.912,"MEAN_ANOMALY":80.1595,"EPHEMERIS_TYPE":0,"CLASSIFICATION_TYPE":"U","NORAD_CAT_ID":58080,"ELEMENT_SET_NO":999,"REV_AT_EPOCH":12415,"BSTAR":-3.8651578e-5,"MEAN_MOTION_DOT":-7.26e-6,"MEAN_MOTION_DDOT":0},{"OBJECT_NAME":"STARLINK-30602","OBJECT_ID":"2023-160G","EPOCH":"2026-01-10T09:41:16.164384","MEAN_MOTION":15.02531445,"ECCENTRICITY":0.00014058,"INCLINATION":43.007,"RA_OF_ASC_NODE":36.6606,"ARG_OF_PERICENTER":263.9069,"MEAN_ANOMALY":96.1613,"EPHEMERIS_TYPE":0,"CLASSIFICATION_TYPE":"U","NORAD_CAT_ID":58081,"ELEMENT_SET_NO":999,"REV_AT_EPOCH":12415,"BSTAR":2.4205331e-5,"MEAN_MOTION_DOT":1.23e-6,"MEAN_MOTION_DDOT":0},{"OBJECT_NAME":"STARLINK-30610","OBJECT_ID":"2023-160H","EPOCH":"2026-01-10T12:00:09.289728","MEAN_MOTION":15.02531047,"ECCENTRICITY":0.00012585,"INCLINATION":43.0047,"RA_OF_ASC_NODE":36.5331,"ARG_OF_PERICENTER":277.3798,"MEAN_ANOMALY":82.6901,"EPHEMERIS_TYPE":0,"CLASSIFICATION_TYPE":"U","NORAD_CAT_ID":58082,"ELEMENT_SET_NO":999,"REV_AT_EPOCH":12416,"BSTAR":3.200813e-5,"MEAN_MOTION_DOT":2.29e-6,"MEAN_MOTION_DDOT":0},{"OBJECT_NAME":"STARLINK-30551","OBJECT_ID":"2023-160J","EPOCH":"2026-01-10T11:55:21.468864","MEAN_MOTION":15.02524149,"ECCENTRICITY":0.00012399,"INCLINATION":43.0041,"RA_OF_ASC_NODE":36.5017,"ARG_OF_PERICENTER":265.8388,"MEAN_ANOMALY":94.2313,"EPHEMERIS_TYPE":0,"CLASSIFICATION_TYPE":"U","NORAD_CAT_ID":58083,"ELEMENT_SET_NO":999,"REV_AT_EPOCH":12416,"BSTAR":0.00017345194,"MEAN_MOTION_DOT":2.139e-5,"MEAN_MOTION_DDOT":0},{"OBJECT_NAME":"STARLINK-30586","OBJECT_ID":"2023-160K","EPOCH":"2026-01-10T11:50:34.520640","MEAN_MOTION":15.02530941,"ECCENTRICITY":0.00010385,"INCLINATION":43.0043,"RA_OF_ASC_NODE":36.481,"ARG_OF_PERICENTER":280.054,"MEAN_ANOMALY":80.0185,"EPHEMERIS_TYPE":0,"CLASSIFICATION_TYPE":"U","NORAD_CAT_ID":58084,"ELEMENT_SET_NO":999,"REV_AT_EPOCH":12416,"BSTAR":0.0002960498,"MEAN_MOTION_DOT":3.797e-5,"MEAN_MOTION_DDOT":0},{"OBJECT_NAME":"STARLINK-30609","OBJECT_ID":"2023-160L","EPOCH":"2026-01-10T02:11:24.082944","MEAN_MOTION":15.02532305,"ECCENTRICITY":0.00015511,"INCLINATION":43.005,"RA_OF_ASC_NODE":38.6217,"ARG_OF_PERICENTER":266.4487,"MEAN_ANOMALY":93.6178,"EPHEMERIS_TYPE":0,"CLASSIFICATION_TYPE":"U","NORAD_CAT_ID":58085,"ELEMENT_SET_NO":999,"REV_AT_EPOCH":12410,"BSTAR":-2.5845677e-5,"MEAN_MOTION_DOT":-5.53e-6,"MEAN_MOTION_DDOT":0}]
